STARLINK-36072          
1 66856U 25281J   25354.83335647 -.01960259  00000+0 -15653-1 0  9991
2 66856  43.0005  72.8190 0001084 272.3260 299.1906 15.73140497  2691
STARLINK-36083          
1 66857U 25281K   25354.83335647 -.01956648  00000+0 -15622-1 0  9995
2 66857  43.0005  72.8142 0001104 276.7874 296.6464 15.73137882  2696
STARLINK-35118          
1 66858U 25281L   25354.83335647 -.01949748  00000+0 -15562-1 0  9992
2 66858  43.0007  72.8086 0001076 270.2796 305.0704 15.73135329  2489
STARLINK-35646          
1 66859U 25281M   25354.83335647 -.01958330  00000+0 -15637-1 0  9993
2 66859  43.0006  72.8043 0001048 275.9190 301.3487 15.73139105  2697
STARLINK-35987          
1 66860U 25281N   25354.83335647 -.01899783  00000+0 -15467-1 0  9992
2 66860  43.0005  72.7801 0001202 269.4919 317.3671 15.73125388  2698
STARLINK-35991          
1 66861U 25281P   25354.83335647 -.01947845  00000+0 -15546-1 0  9994
2 66861  43.0005  72.7951 0001329 271.3653 309.7421 15.73130597  2698
STARLINK-35974          
1 66862U 25281Q   25354.83335647 -.01959597  00000+0 -15646-1 0  9993
2 66862  43.0005  72.7997 0001162 274.8048 304.3779 15.73141127  2597
STARLINK-36134          
1 66863U 25281R   25354.83335647 -.01903378  00000+0 -15498-1 0  9995
2 66863  43.0007  72.7901 0001241 276.7570 306.2623 15.73129797  2693
STARLINK-36070          
1 66864U 25281S   25354.83335647 -.01961488  00000+0 -15663-1 0  9996
2 66864  43.0005  72.7851 0001075 276.2117 308.7223 15.73141901  2721
STARLINK-36117          
1 66865U 25281T   25354.83335647 -.01896778  00000+0 -15440-1 0  9999
2 66865  43.0006  72.7759 0001226 269.9361 318.8391 15.73123875  2692
STARLINK-36126          
1 66866U 25281U   25354.83335647 -.01952691  00000+0 -15588-1 0  9990
2 66866  43.0007  72.7708 0001107 275.4104 315.2763 15.73136124  2722
STARLINK-36101          
1 66867U 25281V   25354.83335647 -.01949796  00000+0 -15561-1 0  9994
2 66867  43.0006  72.7659 0001203 274.8453 317.7561 15.73136068  2533
